[
  {
    "_id": "5da8c0671e05a0692db9fa29",
    "cuisine": "Dutch",
    "name": "Knowlysis Honotron",
    "phone": "+1 (813) 480-2364",
    "address": {
      "zipcode": 40801,
      "street": "38 Marconi Place",
      "city": "Hessville",
      "state": "American Samoa"
    },
    "registered": "Friday, January 13, 2017 1:43 AM"
  },
  {
    "_id": "5da8c0670a5d8d62800394d8",
    "cuisine": "Kosher",
    "name": "Omnigog Nebulean",
    "phone": "+1 (984) 530-3495",
    "address": {
      "zipcode": 22510,
      "street": "70 Ocean Avenue",
      "city": "Rivers",
      "state": "Missouri"
    },
    "registered": "Monday, February 26, 2018 12:11 PM"
  },
  {
    "_id": "5da8c06782d2b00418bbb4e7",
    "cuisine": "French",
    "name": "Zensus Genmex",
    "phone": "+1 (899) 576-2407",
    "address": {
      "zipcode": 32407,
      "street": "57 Willmohr Street",
      "city": "Gardiner",
      "state": "South Dakota"
    },
    "registered": "Thursday, March 6, 2014 2:36 PM"
  },
  {
    "_id": "5da8c06742a22df1be0297dc",
    "cuisine": "Japanese",
    "name": "Vantage Stockpost",
    "phone": "+1 (807) 530-3916",
    "address": {
      "zipcode": 43856,
      "street": "60 Lake Avenue",
      "city": "Sultana",
      "state": "Virginia"
    },
    "registered": "Monday, September 19, 2016 9:04 PM"
  },
  {
    "_id": "5da8c067aaa7b03cf891fd4c",
    "cuisine": "Lebanese",
    "name": "Omatom Pearlessa",
    "phone": "+1 (866) 453-3707",
    "address": {
      "zipcode": 76492,
      "street": "63 Dewitt Avenue",
      "city": "Graniteville",
      "state": "New York"
    },
    "registered": "Sunday, December 17, 2017 8:09 AM"
  },
  {
    "_id": "5da8c0677484c5381863a598",
    "cuisine": "Japanese",
    "name": "Digifad Telequiet",
    "phone": "+1 (890) 529-2627",
    "address": {
      "zipcode": 63728,
      "street": "39 Indiana Place",
      "city": "Rockingham",
      "state": "Utah"
    },
    "registered": "Wednesday, December 23, 2015 12:29 PM"
  },
  {
    "_id": "5da8c067957e02e2a04f065f",
    "cuisine": "Italian",
    "name": "Waterbaby Medesign",
    "phone": "+1 (941) 406-3671",
    "address": {
      "zipcode": 71193,
      "street": "43 Krier Place",
      "city": "Strong",
      "state": "Georgia"
    },
    "registered": "Sunday, June 8, 2014 6:24 PM"
  },
  {
    "_id": "5da8c067076f3ef757318587",
    "cuisine": "Japanese",
    "name": "Junipoor Eclipto",
    "phone": "+1 (924) 537-2290",
    "address": {
      "zipcode": 67749,
      "street": "44 Wakeman Place",
      "city": "Hoehne",
      "state": "Massachusetts"
    },
    "registered": "Tuesday, July 22, 2014 4:04 AM"
  },
  {
    "_id": "5da8c0673158cbbaf58ab89e",
    "cuisine": "Vegan",
    "name": "Photobin Suretech",
    "phone": "+1 (966) 573-3223",
    "address": {
      "zipcode": 72983,
      "street": "67 Meserole Avenue",
      "city": "Falmouth",
      "state": "Kansas"
    },
    "registered": "Tuesday, November 15, 2016 10:57 PM"
  },
  {
    "_id": "5da8c0677b9253f15540ccd3",
    "cuisine": "Lebanese",
    "name": "Cuizine Frosnex",
    "phone": "+1 (936) 517-3810",
    "address": {
      "zipcode": 67296,
      "street": "47 Coffey Street",
      "city": "Martinsville",
      "state": "North Dakota"
    },
    "registered": "Tuesday, June 19, 2018 10:48 PM"
  },
  {
    "_id": "5da8c0674edeae20f5956290",
    "cuisine": "Italian",
    "name": "Comfirm Sarasonic",
    "phone": "+1 (888) 559-2370",
    "address": {
      "zipcode": 62156,
      "street": "16 Windsor Place",
      "city": "Rosburg",
      "state": "Northern Mariana Islands"
    },
    "registered": "Thursday, September 28, 2017 12:32 PM"
  },
  {
    "_id": "5da8c06725abeb9344f667a6",
    "cuisine": "Japanese",
    "name": "Zillacon Zytrex",
    "phone": "+1 (918) 429-3243",
    "address": {
      "zipcode": 56954,
      "street": "69 Graham Avenue",
      "city": "Itmann",
      "state": "Maine"
    },
    "registered": "Thursday, March 5, 2015 2:19 AM"
  },
  {
    "_id": "5da8c067cb6da5fdaccc07dc",
    "cuisine": "Lebanese",
    "name": "Kiggle Talkalot",
    "phone": "+1 (935) 582-3081",
    "address": {
      "zipcode": 64565,
      "street": "7 Albemarle Terrace",
      "city": "Vandiver",
      "state": "Arkansas"
    },
    "registered": "Monday, August 31, 2015 10:34 AM"
  },
  {
    "_id": "5da8c06717f254d6238be788",
    "cuisine": "French",
    "name": "Zaphire Koogle",
    "phone": "+1 (932) 553-2841",
    "address": {
      "zipcode": 41344,
      "street": "6 Townsend Street",
      "city": "Courtland",
      "state": "Virgin Islands"
    },
    "registered": "Sunday, February 25, 2018 4:01 AM"
  },
  {
    "_id": "5da8c067f141b070df86245b",
    "cuisine": "Dutch",
    "name": "Exozent Extragen",
    "phone": "+1 (838) 457-3486",
    "address": {
      "zipcode": 51517,
      "street": "54 Anna Court",
      "city": "Glenbrook",
      "state": "Palau"
    },
    "registered": "Friday, March 14, 2014 5:25 PM"
  },
  {
    "_id": "5da8c0670baf47a976198a2d",
    "cuisine": "Japanese",
    "name": "Blanet Qualitex",
    "phone": "+1 (856) 449-2280",
    "address": {
      "zipcode": 24638,
      "street": "57 Sutton Street",
      "city": "Walker",
      "state": "Wyoming"
    },
    "registered": "Thursday, August 15, 2019 2:43 PM"
  },
  {
    "_id": "5da8c0674679b4468acaeda3",
    "cuisine": "Japanese",
    "name": "Oronoko Solgan",
    "phone": "+1 (908) 573-3326",
    "address": {
      "zipcode": 82061,
      "street": "54 Erskine Loop",
      "city": "Farmington",
      "state": "California"
    },
    "registered": "Wednesday, June 4, 2014 2:24 PM"
  },
  {
    "_id": "5da8c067b0e6ba373cc3ec98",
    "cuisine": "Japanese",
    "name": "Gleamink Apextri",
    "phone": "+1 (841) 477-2971",
    "address": {
      "zipcode": 71731,
      "street": "45 Eldert Street",
      "city": "Cetronia",
      "state": "Guam"
    },
    "registered": "Monday, October 10, 2016 6:44 AM"
  },
  {
    "_id": "5da8c0674adaa919fe7ff0e0",
    "cuisine": "Vegan",
    "name": "Andryx Menbrain",
    "phone": "+1 (992) 471-3601",
    "address": {
      "zipcode": 82498,
      "street": "65 Jerome Street",
      "city": "Albrightsville",
      "state": "Alaska"
    },
    "registered": "Sunday, February 28, 2016 6:54 AM"
  },
  {
    "_id": "5da8c067ed178c66d587b222",
    "cuisine": "Italian",
    "name": "Accusage Recognia",
    "phone": "+1 (957) 525-2576",
    "address": {
      "zipcode": 84485,
      "street": "42 Miami Court",
      "city": "Crisman",
      "state": "Kentucky"
    },
    "registered": "Sunday, May 15, 2016 8:46 AM"
  },
  {
    "_id": "5da8c067751a8635c5f15525",
    "cuisine": "Vegan",
    "name": "Netropic Unq",
    "phone": "+1 (908) 534-3864",
    "address": {
      "zipcode": 41495,
      "street": "37 Murdock Court",
      "city": "Stonybrook",
      "state": "Colorado"
    },
    "registered": "Tuesday, March 7, 2017 8:10 AM"
  },
  {
    "_id": "5da8c06779721a184f4bcb40",
    "cuisine": "French",
    "name": "Orboid Comtours",
    "phone": "+1 (824) 511-3294",
    "address": {
      "zipcode": 50100,
      "street": "35 Hall Street",
      "city": "Frizzleburg",
      "state": "Indiana"
    },
    "registered": "Sunday, June 15, 2014 9:31 AM"
  },
  {
    "_id": "5da8c067a8c5b4776b3e39e9",
    "cuisine": "Indian",
    "name": "Farmex Zensor",
    "phone": "+1 (979) 564-2840",
    "address": {
      "zipcode": 26579,
      "street": "76 Beverley Road",
      "city": "Fivepointville",
      "state": "Florida"
    },
    "registered": "Thursday, January 7, 2016 4:18 PM"
  },
  {
    "_id": "5da8c0676edcd4024875b222",
    "cuisine": "Japanese",
    "name": "Eplode Oceanica",
    "phone": "+1 (974) 564-3890",
    "address": {
      "zipcode": 33019,
      "street": "68 Halleck Street",
      "city": "Chamizal",
      "state": "Louisiana"
    },
    "registered": "Monday, October 13, 2014 11:47 AM"
  },
  {
    "_id": "5da8c067710be07e4860a633",
    "cuisine": "Vegan",
    "name": "Mantrix Kindaloo",
    "phone": "+1 (872) 419-3015",
    "address": {
      "zipcode": 57290,
      "street": "15 Leonora Court",
      "city": "Nicholson",
      "state": "New Mexico"
    },
    "registered": "Friday, May 24, 2019 5:01 AM"
  },
  {
    "_id": "5da8c067616c9903d8a87895",
    "cuisine": "French",
    "name": "Zuvy Sonique",
    "phone": "+1 (887) 458-2026",
    "address": {
      "zipcode": 84271,
      "street": "75 Trucklemans Lane",
      "city": "Falconaire",
      "state": "Marshall Islands"
    },
    "registered": "Sunday, June 11, 2017 3:39 AM"
  },
  {
    "_id": "5da8c067b3ad8bedb499a94d",
    "cuisine": "Indian",
    "name": "Comtrail Xoggle",
    "phone": "+1 (884) 405-2898",
    "address": {
      "zipcode": 67471,
      "street": "68 Gem Street",
      "city": "Beaulieu",
      "state": "Tennessee"
    },
    "registered": "Friday, September 12, 2014 7:02 AM"
  },
  {
    "_id": "5da8c0676a66db3672fef319",
    "cuisine": "Italian",
    "name": "Uni Conferia",
    "phone": "+1 (947) 546-3034",
    "address": {
      "zipcode": 54145,
      "street": "71 Conselyea Street",
      "city": "Zeba",
      "state": "Ohio"
    },
    "registered": "Saturday, October 13, 2018 6:55 PM"
  },
  {
    "_id": "5da8c0670f4252ea5011825e",
    "cuisine": "Indian",
    "name": "Anivet Keeg",
    "phone": "+1 (867) 556-3577",
    "address": {
      "zipcode": 71096,
      "street": "75 Taylor Street",
      "city": "Denio",
      "state": "South Carolina"
    },
    "registered": "Friday, January 24, 2014 4:21 PM"
  },
  {
    "_id": "5da8c067b83aef01ee8b7d59",
    "cuisine": "Chinese",
    "name": "Interodeo Eargo",
    "phone": "+1 (966) 551-3993",
    "address": {
      "zipcode": 59745,
      "street": "26 School Lane",
      "city": "Ladera",
      "state": "Hawaii"
    },
    "registered": "Sunday, May 24, 2015 3:20 AM"
  },
  {
    "_id": "5da8c06720553d77f1e92d97",
    "cuisine": "Indian",
    "name": "Venoflex Zentury",
    "phone": "+1 (885) 458-2949",
    "address": {
      "zipcode": 35201,
      "street": "67 Fleet Walk",
      "city": "Castleton",
      "state": "Vermont"
    },
    "registered": "Monday, May 16, 2016 9:49 AM"
  },
  {
    "_id": "5da8c067972b4a3dfee8a271",
    "cuisine": "Japanese",
    "name": "Globoil Envire",
    "phone": "+1 (846) 505-3200",
    "address": {
      "zipcode": 55350,
      "street": "51 Jackson Court",
      "city": "Catharine",
      "state": "Oklahoma"
    },
    "registered": "Wednesday, June 4, 2014 3:13 PM"
  },
  {
    "_id": "5da8c067fe732480040106b2",
    "cuisine": "Japanese",
    "name": "Providco Ezentia",
    "phone": "+1 (874) 485-2499",
    "address": {
      "zipcode": 76878,
      "street": "54 Metropolitan Avenue",
      "city": "Welch",
      "state": "Oregon"
    },
    "registered": "Tuesday, June 16, 2015 8:13 PM"
  },
  {
    "_id": "5da8c0671379e64391bf900e",
    "cuisine": "Dutch",
    "name": "Metroz Enervate",
    "phone": "+1 (929) 516-2751",
    "address": {
      "zipcode": 20071,
      "street": "25 Seabring Street",
      "city": "Madrid",
      "state": "New Hampshire"
    },
    "registered": "Tuesday, September 18, 2018 11:25 AM"
  },
  {
    "_id": "5da8c067022ad7bfd0a3f9ad",
    "cuisine": "Kosher",
    "name": "Senmei Fitcore",
    "phone": "+1 (811) 538-2906",
    "address": {
      "zipcode": 42528,
      "street": "53 Ruby Street",
      "city": "Herbster",
      "state": "Maryland"
    },
    "registered": "Tuesday, October 24, 2017 12:47 PM"
  },
  {
    "_id": "5da8c067fd93f21096145d24",
    "cuisine": "Vegan",
    "name": "Roughies Dreamia",
    "phone": "+1 (833) 456-2433",
    "address": {
      "zipcode": 46203,
      "street": "19 Woodbine Street",
      "city": "Mammoth",
      "state": "Montana"
    },
    "registered": "Sunday, January 28, 2018 10:22 PM"
  },
  {
    "_id": "5da8c06780da5afed2cd0e1c",
    "cuisine": "French",
    "name": "Bunga Intrawear",
    "phone": "+1 (877) 557-3041",
    "address": {
      "zipcode": 40635,
      "street": "56 Seacoast Terrace",
      "city": "Goldfield",
      "state": "Iowa"
    },
    "registered": "Monday, November 7, 2016 1:43 PM"
  },
  {
    "_id": "5da8c067bba115869a8f3f71",
    "cuisine": "Indian",
    "name": "Zorromop Dancity",
    "phone": "+1 (855) 580-2591",
    "address": {
      "zipcode": 48625,
      "street": "24 Jaffray Street",
      "city": "Bridgetown",
      "state": "Washington"
    },
    "registered": "Friday, October 27, 2017 11:41 AM"
  },
  {
    "_id": "5da8c0670c8785cb6dfecf2c",
    "cuisine": "Halal",
    "name": "Zoxy Anarco",
    "phone": "+1 (924) 525-3225",
    "address": {
      "zipcode": 24644,
      "street": "55 Story Street",
      "city": "Woodlands",
      "state": "Pennsylvania"
    },
    "registered": "Thursday, August 28, 2014 9:10 AM"
  },
  {
    "_id": "5da8c06704d3299d9d12ab97",
    "cuisine": "French",
    "name": "Exosis Accuprint",
    "phone": "+1 (846) 414-2492",
    "address": {
      "zipcode": 48467,
      "street": "56 Joval Court",
      "city": "Vale",
      "state": "North Carolina"
    },
    "registered": "Sunday, January 5, 2014 9:59 AM"
  },
  {
    "_id": "5da8c0678ac2cd59021342ce",
    "cuisine": "Indian",
    "name": "Shepard Everest",
    "phone": "+1 (932) 439-3418",
    "address": {
      "zipcode": 33074,
      "street": "35 Meadow Street",
      "city": "Stouchsburg",
      "state": "Connecticut"
    },
    "registered": "Thursday, November 6, 2014 5:40 PM"
  },
  {
    "_id": "5da8c0672105d7324a026b4a",
    "cuisine": "Japanese",
    "name": "Aquoavo Farmage",
    "phone": "+1 (909) 414-2198",
    "address": {
      "zipcode": 67888,
      "street": "18 Dahlgreen Place",
      "city": "Katonah",
      "state": "Minnesota"
    },
    "registered": "Friday, September 1, 2017 8:38 PM"
  },
  {
    "_id": "5da8c0678edc2c1a88fdcc7d",
    "cuisine": "Dutch",
    "name": "Tri@Tribalog Terrago",
    "phone": "+1 (997) 600-2152",
    "address": {
      "zipcode": 84526,
      "street": "19 Bowery Street",
      "city": "Choctaw",
      "state": "District Of Columbia"
    },
    "registered": "Friday, June 26, 2015 4:28 PM"
  },
  {
    "_id": "5da8c067573ac79f3b44bc44",
    "cuisine": "Kosher",
    "name": "Dognost Fuelton",
    "phone": "+1 (933) 507-3438",
    "address": {
      "zipcode": 54077,
      "street": "57 Sands Street",
      "city": "Machias",
      "state": "Illinois"
    },
    "registered": "Sunday, November 6, 2016 6:39 PM"
  },
  {
    "_id": "5da8c067368fa51f6d93c3a5",
    "cuisine": "French",
    "name": "Corpulse Geekol",
    "phone": "+1 (933) 474-2916",
    "address": {
      "zipcode": 17940,
      "street": "42 Ridgecrest Terrace",
      "city": "Bartley",
      "state": "New Jersey"
    },
    "registered": "Saturday, February 24, 2018 11:42 PM"
  },
  {
    "_id": "5da8c067229f3c22fc3362fe",
    "cuisine": "Kosher",
    "name": "Realysis Comcur",
    "phone": "+1 (873) 534-3559",
    "address": {
      "zipcode": 59763,
      "street": "60 Boynton Place",
      "city": "Cowiche",
      "state": "Arizona"
    },
    "registered": "Sunday, November 4, 2018 4:19 PM"
  },
  {
    "_id": "5da8c0679a9c353ba664b2ed",
    "cuisine": "Italian",
    "name": "Illumity Typhonica",
    "phone": "+1 (982) 484-3139",
    "address": {
      "zipcode": 78645,
      "street": "13 Applegate Court",
      "city": "Harrodsburg",
      "state": "Alabama"
    },
    "registered": "Tuesday, October 11, 2016 6:36 PM"
  },
  {
    "_id": "5da8c067694e019e00641aaf",
    "cuisine": "Vegan",
    "name": "Exospace Firewax",
    "phone": "+1 (852) 531-2018",
    "address": {
      "zipcode": 39623,
      "street": "60 Myrtle Avenue",
      "city": "Brenton",
      "state": "Mississippi"
    },
    "registered": "Thursday, September 22, 2016 10:09 PM"
  },
  {
    "_id": "5da8c0678142b29f5bf4213b",
    "cuisine": "Lebanese",
    "name": "Eweville Isonus",
    "phone": "+1 (932) 537-3102",
    "address": {
      "zipcode": 23803,
      "street": "19 Norwood Avenue",
      "city": "Blanco",
      "state": "Michigan"
    },
    "registered": "Wednesday, November 19, 2014 1:09 PM"
  },
  {
    "_id": "5da8c06709889af4d760a559",
    "cuisine": "Kosher",
    "name": "Overplex Incubus",
    "phone": "+1 (856) 559-3558",
    "address": {
      "zipcode": 60523,
      "street": "33 Chestnut Street",
      "city": "Darbydale",
      "state": "Nevada"
    },
    "registered": "Sunday, November 23, 2014 8:21 PM"
  },
  {
    "_id": "5da8c0673f1dbb1940bc97f7",
    "cuisine": "Kosher",
    "name": "Crustatia Senmao",
    "phone": "+1 (951) 423-2688",
    "address": {
      "zipcode": 44113,
      "street": "74 Bradford Street",
      "city": "Independence",
      "state": "Puerto Rico"
    },
    "registered": "Sunday, May 28, 2017 6:28 AM"
  },
  {
    "_id": "5da8c0670e3b033b359d7cc4",
    "cuisine": "Italian",
    "name": "Callflex Xymonk",
    "phone": "+1 (883) 542-3913",
    "address": {
      "zipcode": 79684,
      "street": "26 Albany Avenue",
      "city": "Jacksonburg",
      "state": "Wisconsin"
    },
    "registered": "Monday, October 6, 2014 11:18 AM"
  },
  {
    "_id": "5da8c067eb3f3eae9225d8ce",
    "cuisine": "Vegan",
    "name": "Bristo Kidgrease",
    "phone": "+1 (804) 442-3557",
    "address": {
      "zipcode": 82151,
      "street": "24 Blake Avenue",
      "city": "Idamay",
      "state": "Federated States Of Micronesia"
    },
    "registered": "Friday, February 6, 2015 1:20 PM"
  },
  {
    "_id": "5da8c06712ee30b95ee067f0",
    "cuisine": "Kosher",
    "name": "Liquidoc Perkle",
    "phone": "+1 (894) 540-3127",
    "address": {
      "zipcode": 42912,
      "street": "54 Elmwood Avenue",
      "city": "Cutter",
      "state": "Delaware"
    },
    "registered": "Sunday, July 5, 2015 7:45 PM"
  },
  {
    "_id": "5da8c06731f98d5dca9c7dcb",
    "cuisine": "Dutch",
    "name": "Remold Multron",
    "phone": "+1 (884) 538-3968",
    "address": {
      "zipcode": 50988,
      "street": "35 Commercial Street",
      "city": "Emory",
      "state": "Idaho"
    },
    "registered": "Wednesday, October 10, 2018 5:01 AM"
  },
  {
    "_id": "5da8c067fec0497cce41e6c5",
    "cuisine": "French",
    "name": "Krag Sequitur",
    "phone": "+1 (860) 414-2587",
    "address": {
      "zipcode": 67479,
      "street": "55 Seagate Terrace",
      "city": "Nash",
      "state": "West Virginia"
    },
    "registered": "Friday, August 10, 2018 2:01 AM"
  },
  {
    "_id": "5da8c0673c2a3b343b35983c",
    "cuisine": "Kosher",
    "name": "Maxemia Chorizon",
    "phone": "+1 (896) 428-3423",
    "address": {
      "zipcode": 27483,
      "street": "14 Campus Road",
      "city": "Carrizo",
      "state": "Rhode Island"
    },
    "registered": "Wednesday, October 1, 2014 6:58 PM"
  },
  {
    "_id": "5da8c0672cbb7dcc9d46cce6",
    "cuisine": "French",
    "name": "Fuelworks Zillatide",
    "phone": "+1 (941) 483-2717",
    "address": {
      "zipcode": 65006,
      "street": "21 Doughty Street",
      "city": "Warren",
      "state": "Texas"
    },
    "registered": "Tuesday, January 28, 2014 7:09 PM"
  },
  {
    "_id": "5da8c0675b397d5902e23616",
    "cuisine": "Halal",
    "name": "Endipine Exovent",
    "phone": "+1 (973) 571-2673",
    "address": {
      "zipcode": 62532,
      "street": "72 Schenectady Avenue",
      "city": "Oretta",
      "state": "American Samoa"
    },
    "registered": "Sunday, October 25, 2015 7:50 AM"
  },
  {
    "_id": "5da8c067a91329c4a179febc",
    "cuisine": "Indian",
    "name": "Hopeli Zanymax",
    "phone": "+1 (910) 454-2568",
    "address": {
      "zipcode": 36516,
      "street": "63 Commerce Street",
      "city": "Bayview",
      "state": "Missouri"
    },
    "registered": "Friday, July 27, 2018 11:06 PM"
  },
  {
    "_id": "5da8c067e567ec12443adfcc",
    "cuisine": "Kosher",
    "name": "Gynk Schoolio",
    "phone": "+1 (930) 492-2936",
    "address": {
      "zipcode": 83496,
      "street": "74 Plaza Street",
      "city": "Croom",
      "state": "South Dakota"
    },
    "registered": "Sunday, May 19, 2019 1:35 PM"
  },
  {
    "_id": "5da8c0673a50d649f74f4247",
    "cuisine": "Lebanese",
    "name": "Luxuria Andershun",
    "phone": "+1 (811) 506-3022",
    "address": {
      "zipcode": 85877,
      "street": "49 Willow Street",
      "city": "Efland",
      "state": "Virginia"
    },
    "registered": "Friday, December 5, 2014 4:16 PM"
  },
  {
    "_id": "5da8c06779ecd15175646e56",
    "cuisine": "Chinese",
    "name": "Marketoid Satiance",
    "phone": "+1 (868) 421-3718",
    "address": {
      "zipcode": 68693,
      "street": "65 Everett Avenue",
      "city": "Jacksonwald",
      "state": "New York"
    },
    "registered": "Saturday, June 15, 2019 5:32 PM"
  },
  {
    "_id": "5da8c067931e6981692c0ca6",
    "cuisine": "Indian",
    "name": "Empirica Renovize",
    "phone": "+1 (987) 497-3969",
    "address": {
      "zipcode": 26974,
      "street": "18 Perry Place",
      "city": "Weogufka",
      "state": "Utah"
    },
    "registered": "Tuesday, January 23, 2018 6:17 AM"
  },
  {
    "_id": "5da8c067d1513666d376c830",
    "cuisine": "Japanese",
    "name": "Quailcom Qaboos",
    "phone": "+1 (815) 421-3543",
    "address": {
      "zipcode": 14290,
      "street": "49 Newport Street",
      "city": "Kidder",
      "state": "Georgia"
    },
    "registered": "Sunday, April 10, 2016 2:05 PM"
  },
  {
    "_id": "5da8c0679fee57c7b0ab3d4b",
    "cuisine": "Lebanese",
    "name": "Acium Exoblue",
    "phone": "+1 (975) 582-2503",
    "address": {
      "zipcode": 67338,
      "street": "75 Rockaway Parkway",
      "city": "Emison",
      "state": "Massachusetts"
    },
    "registered": "Wednesday, February 6, 2019 11:15 PM"
  },
  {
    "_id": "5da8c0673d22ff4f7e6204ff",
    "cuisine": "Kosher",
    "name": "Orbin Applica",
    "phone": "+1 (918) 502-3072",
    "address": {
      "zipcode": 21640,
      "street": "52 Ditmas Avenue",
      "city": "Chapin",
      "state": "Kansas"
    },
    "registered": "Wednesday, January 17, 2018 2:55 PM"
  },
  {
    "_id": "5da8c067b694dae377610995",
    "cuisine": "Chinese",
    "name": "Goko Opticon",
    "phone": "+1 (971) 448-3787",
    "address": {
      "zipcode": 16588,
      "street": "43 Stone Avenue",
      "city": "Shasta",
      "state": "North Dakota"
    },
    "registered": "Thursday, September 12, 2019 4:52 AM"
  },
  {
    "_id": "5da8c067b5f7c6724c7fcdd9",
    "cuisine": "Chinese",
    "name": "Viocular Gushkool",
    "phone": "+1 (929) 526-3103",
    "address": {
      "zipcode": 29642,
      "street": "24 Remsen Avenue",
      "city": "Springdale",
      "state": "Northern Mariana Islands"
    },
    "registered": "Sunday, August 11, 2019 5:51 PM"
  },
  {
    "_id": "5da8c0816d91c67db89e7404",
    "cuisine": "French",
    "name": "Housedown Talkalot",
    "phone": "+1 (906) 565-2294",
    "address": {
      "zipcode": 70523,
      "street": "65 Murdock Court",
      "city": "Calverton",
      "state": "Washington"
    },
    "registered": "Wednesday, February 21, 2018 5:55 AM"
  },
  {
    "_id": "5da8c0819cec2003c91d49a7",
    "cuisine": "Japanese",
    "name": "Dentrex Musix",
    "phone": "+1 (859) 540-3121",
    "address": {
      "zipcode": 79031,
      "street": "8 Stillwell Place",
      "city": "Saddlebrooke",
      "state": "Mississippi"
    },
    "registered": "Monday, December 18, 2017 6:02 PM"
  },
  {
    "_id": "5da8c08143ac21403de01fe8",
    "cuisine": "Indian",
    "name": "Stockpost Rodeocean",
    "phone": "+1 (940) 551-2768",
    "address": {
      "zipcode": 65019,
      "street": "51 Lombardy Street",
      "city": "Sabillasville",
      "state": "Maine"
    },
    "registered": "Friday, July 11, 2014 1:15 AM"
  },
  {
    "_id": "5da8c081471b301a79b28ed4",
    "cuisine": "Lebanese",
    "name": "Enquility Zappix",
    "phone": "+1 (814) 587-2360",
    "address": {
      "zipcode": 39841,
      "street": "30 Polar Street",
      "city": "Alafaya",
      "state": "New York"
    },
    "registered": "Saturday, June 20, 2015 5:49 AM"
  },
  {
    "_id": "5da8c08183971fd3330eed7c",
    "cuisine": "French",
    "name": "Telepark Euron",
    "phone": "+1 (921) 527-2765",
    "address": {
      "zipcode": 75994,
      "street": "43 Hinckley Place",
      "city": "Sims",
      "state": "American Samoa"
    },
    "registered": "Tuesday, February 19, 2019 2:20 AM"
  },
  {
    "_id": "5da8c081743b2a1349bf5b2a",
    "cuisine": "Dutch",
    "name": "Baluba Supremia",
    "phone": "+1 (978) 467-3867",
    "address": {
      "zipcode": 68321,
      "street": "16 Mill Lane",
      "city": "Efland",
      "state": "South Carolina"
    },
    "registered": "Monday, April 22, 2019 9:37 PM"
  },
  {
    "_id": "5da8c0819b5e66166ca22fdb",
    "cuisine": "Italian",
    "name": "Zensure Geekosis",
    "phone": "+1 (902) 560-2191",
    "address": {
      "zipcode": 46263,
      "street": "72 Stuart Street",
      "city": "Coyote",
      "state": "Tennessee"
    },
    "registered": "Monday, February 12, 2018 9:24 PM"
  },
  {
    "_id": "5da8c08192e37c0ac88adef9",
    "cuisine": "Chinese",
    "name": "Bedder Kineticut",
    "phone": "+1 (836) 456-3091",
    "address": {
      "zipcode": 43457,
      "street": "27 Vista Place",
      "city": "Waterview",
      "state": "Hawaii"
    },
    "registered": "Saturday, October 10, 2015 8:51 AM"
  },
  {
    "_id": "5da8c081605c190f9631e6ce",
    "cuisine": "Halal",
    "name": "Skybold Zilphur",
    "phone": "+1 (809) 592-3166",
    "address": {
      "zipcode": 34967,
      "street": "44 Lexington Avenue",
      "city": "Wolcott",
      "state": "Minnesota"
    },
    "registered": "Monday, September 16, 2019 2:11 PM"
  },
  {
    "_id": "5da8c08166e3b0c6e2a8079b",
    "cuisine": "Vegan",
    "name": "Quotezart Viagreat",
    "phone": "+1 (937) 425-3055",
    "address": {
      "zipcode": 78085,
      "street": "11 Chester Street",
      "city": "Denio",
      "state": "Missouri"
    },
    "registered": "Friday, January 24, 2014 11:28 PM"
  },
  {
    "_id": "5da8c081d9647c67fbb60309",
    "cuisine": "Indian",
    "name": "Blanet Orbixtar",
    "phone": "+1 (988) 401-3555",
    "address": {
      "zipcode": 18125,
      "street": "7 Kane Place",
      "city": "Blanco",
      "state": "New Hampshire"
    },
    "registered": "Tuesday, December 5, 2017 3:55 AM"
  },
  {
    "_id": "5da8c081cd3b966a5afd2b46",
    "cuisine": "Italian",
    "name": "Kidstock Memora",
    "phone": "+1 (904) 590-3203",
    "address": {
      "zipcode": 30395,
      "street": "74 Post Court",
      "city": "Hackneyville",
      "state": "Rhode Island"
    },
    "registered": "Wednesday, November 7, 2018 1:05 PM"
  },
  {
    "_id": "5da8c081d15d54ea85d22c25",
    "cuisine": "Vegan",
    "name": "Extragen Isbol",
    "phone": "+1 (893) 595-3413",
    "address": {
      "zipcode": 16252,
      "street": "49 Bills Place",
      "city": "Maybell",
      "state": "North Carolina"
    },
    "registered": "Friday, November 24, 2017 12:41 AM"
  },
  {
    "_id": "5da8c081467dce624238141c",
    "cuisine": "Vegan",
    "name": "Comtrak Vertide",
    "phone": "+1 (820) 475-3797",
    "address": {
      "zipcode": 38727,
      "street": "35 Bradford Street",
      "city": "Bison",
      "state": "Palau"
    },
    "registered": "Saturday, November 5, 2016 4:21 PM"
  },
  {
    "_id": "5da8c08179daadf332b040b4",
    "cuisine": "Indian",
    "name": "Aquazure Bizmatic",
    "phone": "+1 (908) 531-2866",
    "address": {
      "zipcode": 72634,
      "street": "33 Stratford Road",
      "city": "Hannasville",
      "state": "Arizona"
    },
    "registered": "Friday, March 28, 2014 1:39 AM"
  },
  {
    "_id": "5da8c08182f971258ccbb157",
    "cuisine": "Indian",
    "name": "Progenex Skinserve",
    "phone": "+1 (813) 401-3326",
    "address": {
      "zipcode": 74398,
      "street": "53 Doone Court",
      "city": "Riverton",
      "state": "Georgia"
    },
    "registered": "Saturday, September 1, 2018 7:45 PM"
  },
  {
    "_id": "5da8c0815cc69e8924baa483",
    "cuisine": "Italian",
    "name": "Organica Quantasis",
    "phone": "+1 (822) 476-2126",
    "address": {
      "zipcode": 62342,
      "street": "75 Aviation Road",
      "city": "Belmont",
      "state": "New Mexico"
    },
    "registered": "Tuesday, October 9, 2018 3:43 AM"
  },
  {
    "_id": "5da8c0816d380d05965d7680",
    "cuisine": "Japanese",
    "name": "Vantage Oceanica",
    "phone": "+1 (859) 573-3167",
    "address": {
      "zipcode": 38034,
      "street": "72 Herkimer Court",
      "city": "Bawcomville",
      "state": "Florida"
    },
    "registered": "Tuesday, February 10, 2015 6:08 AM"
  },
  {
    "_id": "5da8c0813b78998d826469a4",
    "cuisine": "Kosher",
    "name": "Qot Zilencio",
    "phone": "+1 (994) 548-2168",
    "address": {
      "zipcode": 15753,
      "street": "56 Hastings Street",
      "city": "Axis",
      "state": "Utah"
    },
    "registered": "Thursday, April 19, 2018 8:07 PM"
  },
  {
    "_id": "5da8c08119c01c156a209980",
    "cuisine": "Lebanese",
    "name": "Honotron Comverges",
    "phone": "+1 (833) 499-2442",
    "address": {
      "zipcode": 23832,
      "street": "58 Seagate Avenue",
      "city": "Gorham",
      "state": "Kentucky"
    },
    "registered": "Sunday, July 14, 2019 9:32 PM"
  },
  {
    "_id": "5da8c081a2f6b45333ca8a23",
    "cuisine": "Indian",
    "name": "Amtas Tropolis",
    "phone": "+1 (907) 509-3112",
    "address": {
      "zipcode": 30989,
      "street": "44 Willoughby Avenue",
      "city": "Leola",
      "state": "Connecticut"
    },
    "registered": "Friday, March 29, 2019 12:05 PM"
  },
  {
    "_id": "5da8c08163fe8ff2b0978ac2",
    "cuisine": "French",
    "name": "Futurity Tasmania",
    "phone": "+1 (839) 437-2860",
    "address": {
      "zipcode": 27927,
      "street": "62 Rockaway Parkway",
      "city": "Ribera",
      "state": "Maryland"
    },
    "registered": "Sunday, July 8, 2018 5:47 PM"
  },
  {
    "_id": "5da8c0811dee706601f97de9",
    "cuisine": "Dutch",
    "name": "Menbrain Rocklogic",
    "phone": "+1 (977) 431-2976",
    "address": {
      "zipcode": 74798,
      "street": "72 Colonial Road",
      "city": "Singer",
      "state": "Montana"
    },
    "registered": "Thursday, April 2, 2015 2:23 AM"
  },
  {
    "_id": "5da8c08118f92cec1dc79d35",
    "cuisine": "Dutch",
    "name": "Ecratic Genekom",
    "phone": "+1 (911) 500-3062",
    "address": {
      "zipcode": 73822,
      "street": "20 Bennet Court",
      "city": "Haena",
      "state": "Louisiana"
    },
    "registered": "Tuesday, October 21, 2014 5:55 AM"
  },
  {
    "_id": "5da8c0812455b52ea171ae3d",
    "cuisine": "Indian",
    "name": "Obliq Kindaloo",
    "phone": "+1 (994) 513-2579",
    "address": {
      "zipcode": 85128,
      "street": "30 Corbin Place",
      "city": "Kipp",
      "state": "Iowa"
    },
    "registered": "Friday, January 6, 2017 9:57 AM"
  },
  {
    "_id": "5da8c0815a686d1aa306805b",
    "cuisine": "Halal",
    "name": "Accufarm Tingles",
    "phone": "+1 (886) 599-3140",
    "address": {
      "zipcode": 54975,
      "street": "14 Juliana Place",
      "city": "Tonopah",
      "state": "West Virginia"
    },
    "registered": "Monday, June 29, 2015 10:14 PM"
  },
  {
    "_id": "5da8c08135a3e36a21090d2a",
    "cuisine": "Kosher",
    "name": "Musanpoly Entogrok",
    "phone": "+1 (841) 591-2663",
    "address": {
      "zipcode": 19185,
      "street": "36 Wilson Street",
      "city": "Brethren",
      "state": "Indiana"
    },
    "registered": "Sunday, August 31, 2014 11:44 AM"
  },
  {
    "_id": "5da8c081f5e906d533ea1622",
    "cuisine": "Lebanese",
    "name": "Pheast Netbook",
    "phone": "+1 (835) 435-3219",
    "address": {
      "zipcode": 18972,
      "street": "56 Goodwin Place",
      "city": "Saticoy",
      "state": "Idaho"
    },
    "registered": "Thursday, January 21, 2016 4:30 PM"
  },
  {
    "_id": "5da8c081b57ac7e4860b2618",
    "cuisine": "French",
    "name": "Kiosk Powernet",
    "phone": "+1 (906) 469-2250",
    "address": {
      "zipcode": 83678,
      "street": "59 Dekalb Avenue",
      "city": "Canterwood",
      "state": "District Of Columbia"
    },
    "registered": "Wednesday, May 11, 2016 12:25 AM"
  },
  {
    "_id": "5da8c08138d1883f4bf7acf1",
    "cuisine": "Lebanese",
    "name": "Zork Maxemia",
    "phone": "+1 (857) 506-2788",
    "address": {
      "zipcode": 53314,
      "street": "48 Evans Street",
      "city": "Taycheedah",
      "state": "California"
    },
    "registered": "Thursday, September 18, 2014 1:04 PM"
  },
  {
    "_id": "5da8c0812f7b02216027c283",
    "cuisine": "Italian",
    "name": "Bulljuice Trasola",
    "phone": "+1 (821) 435-3423",
    "address": {
      "zipcode": 27769,
      "street": "34 Fair Street",
      "city": "Edenburg",
      "state": "Colorado"
    },
    "registered": "Saturday, August 24, 2019 3:59 PM"
  },
  {
    "_id": "5da8c0814af8076ed34650d0",
    "cuisine": "Vegan",
    "name": "Sequitur Isotronic",
    "phone": "+1 (933) 569-2251",
    "address": {
      "zipcode": 17566,
      "street": "47 Lorraine Street",
      "city": "Juarez",
      "state": "Arkansas"
    },
    "registered": "Sunday, June 29, 2014 12:56 AM"
  },
  {
    "_id": "5da8c081fae98d9d7be6b51d",
    "cuisine": "Lebanese",
    "name": "Orbaxter Yurture",
    "phone": "+1 (926) 411-3189",
    "address": {
      "zipcode": 26694,
      "street": "55 Nassau Street",
      "city": "Bancroft",
      "state": "Guam"
    },
    "registered": "Tuesday, September 6, 2016 3:46 AM"
  },
  {
    "_id": "5da8c0814dda9d444a8a3beb",
    "cuisine": "Vegan",
    "name": "Flexigen Flumbo",
    "phone": "+1 (822) 403-3962",
    "address": {
      "zipcode": 46262,
      "street": "6 Elmwood Avenue",
      "city": "Murillo",
      "state": "Northern Mariana Islands"
    },
    "registered": "Sunday, November 11, 2018 6:55 AM"
  },
  {
    "_id": "5da8c081903d33ea90737590",
    "cuisine": "Vegan",
    "name": "Calcu Zillatide",
    "phone": "+1 (850) 479-2605",
    "address": {
      "zipcode": 79009,
      "street": "67 Emmons Avenue",
      "city": "Collins",
      "state": "Nevada"
    },
    "registered": "Friday, June 15, 2018 4:18 AM"
  },
  {
    "_id": "5da8c0812726ff7e46f2dc02",
    "cuisine": "French",
    "name": "Terascape Greeker",
    "phone": "+1 (825) 402-2891",
    "address": {
      "zipcode": 71293,
      "street": "27 Covert Street",
      "city": "Downsville",
      "state": "Kansas"
    },
    "registered": "Saturday, August 10, 2019 8:39 AM"
  },
  {
    "_id": "5da8c081f48b0e5c2e3921c1",
    "cuisine": "Japanese",
    "name": "Maximind Exospace",
    "phone": "+1 (842) 434-2569",
    "address": {
      "zipcode": 68439,
      "street": "24 King Street",
      "city": "Waukeenah",
      "state": "Wyoming"
    },
    "registered": "Tuesday, November 28, 2017 7:34 PM"
  },
  {
    "_id": "5da8c08133143e9959fb83f4",
    "cuisine": "French",
    "name": "Aquafire Anarco",
    "phone": "+1 (832) 551-3269",
    "address": {
      "zipcode": 54041,
      "street": "33 Cameron Court",
      "city": "Fedora",
      "state": "South Dakota"
    },
    "registered": "Wednesday, September 6, 2017 6:38 AM"
  },
  {
    "_id": "5da8c08177ea667575ab203c",
    "cuisine": "French",
    "name": "Intrawear Dymi",
    "phone": "+1 (927) 441-2565",
    "address": {
      "zipcode": 76248,
      "street": "36 Arlington Avenue",
      "city": "Bayview",
      "state": "Federated States Of Micronesia"
    },
    "registered": "Friday, July 11, 2014 10:30 AM"
  },
  {
    "_id": "5da8c0815a0efecd8ca54a9b",
    "cuisine": "Lebanese",
    "name": "Zillacon Naxdis",
    "phone": "+1 (890) 431-2838",
    "address": {
      "zipcode": 66366,
      "street": "16 Gunnison Court",
      "city": "Waterloo",
      "state": "Oregon"
    },
    "registered": "Sunday, January 17, 2016 2:49 PM"
  },
  {
    "_id": "5da8c08167b69fa68c7009c2",
    "cuisine": "Kosher",
    "name": "Hatology Zipak",
    "phone": "+1 (978) 527-3911",
    "address": {
      "zipcode": 14131,
      "street": "38 Putnam Avenue",
      "city": "Robinette",
      "state": "Alabama"
    },
    "registered": "Tuesday, October 18, 2016 8:16 PM"
  },
  {
    "_id": "5da8c08164f399385e4c85f9",
    "cuisine": "Italian",
    "name": "Pathways Mantrix",
    "phone": "+1 (800) 579-2954",
    "address": {
      "zipcode": 15920,
      "street": "16 Grafton Street",
      "city": "Hiseville",
      "state": "Texas"
    },
    "registered": "Sunday, August 30, 2015 11:04 AM"
  },
  {
    "_id": "5da8c081962f7ab01c6bc87f",
    "cuisine": "Japanese",
    "name": "Halap Orbalix",
    "phone": "+1 (995) 444-3261",
    "address": {
      "zipcode": 55964,
      "street": "69 Virginia Place",
      "city": "Wiscon",
      "state": "Vermont"
    },
    "registered": "Monday, May 1, 2017 5:56 AM"
  },
  {
    "_id": "5da8c081983bffbb217608a9",
    "cuisine": "French",
    "name": "Emoltra Netplax",
    "phone": "+1 (929) 467-2163",
    "address": {
      "zipcode": 54952,
      "street": "18 Cheever Place",
      "city": "Comptche",
      "state": "Wisconsin"
    },
    "registered": "Tuesday, October 11, 2016 2:06 PM"
  },
  {
    "_id": "5da8c081903085acaea80469",
    "cuisine": "Italian",
    "name": "Fuelton Magneato",
    "phone": "+1 (809) 565-2343",
    "address": {
      "zipcode": 80074,
      "street": "43 Holt Court",
      "city": "Spelter",
      "state": "Virgin Islands"
    },
    "registered": "Friday, June 24, 2016 7:25 PM"
  },
  {
    "_id": "5da8c081a2d88d7ad3e9cd66",
    "cuisine": "Italian",
    "name": "Fleetmix Earwax",
    "phone": "+1 (976) 448-3107",
    "address": {
      "zipcode": 13267,
      "street": "74 Beverley Road",
      "city": "Grenelefe",
      "state": "Ohio"
    },
    "registered": "Tuesday, March 31, 2015 12:55 PM"
  },
  {
    "_id": "5da8c08166ae9f8539394972",
    "cuisine": "Halal",
    "name": "Namegen Otherside",
    "phone": "+1 (982) 597-3535",
    "address": {
      "zipcode": 73168,
      "street": "69 Union Street",
      "city": "Wikieup",
      "state": "Michigan"
    },
    "registered": "Sunday, November 18, 2018 6:03 AM"
  },
  {
    "_id": "5da8c0819e6627412dfb0471",
    "cuisine": "Indian",
    "name": "Frosnex Idealis",
    "phone": "+1 (926) 450-2247",
    "address": {
      "zipcode": 81005,
      "street": "38 Kensington Walk",
      "city": "Highland",
      "state": "North Dakota"
    },
    "registered": "Monday, March 6, 2017 9:04 AM"
  },
  {
    "_id": "5da8c081c25401a0c284ad43",
    "cuisine": "Italian",
    "name": "Cowtown Codax",
    "phone": "+1 (859) 527-3052",
    "address": {
      "zipcode": 36767,
      "street": "44 Colonial Court",
      "city": "Tolu",
      "state": "Massachusetts"
    },
    "registered": "Sunday, April 21, 2019 3:30 PM"
  },
  {
    "_id": "5da8c0815d68cb883bf9e906",
    "cuisine": "Indian",
    "name": "Artiq Aquasure",
    "phone": "+1 (996) 512-3304",
    "address": {
      "zipcode": 50490,
      "street": "28 Williams Place",
      "city": "Shasta",
      "state": "Marshall Islands"
    },
    "registered": "Thursday, January 31, 2019 8:45 AM"
  },
  {
    "_id": "5da8c0818ad79ab7ed241bca",
    "cuisine": "Japanese",
    "name": "Zepitope Fitcore",
    "phone": "+1 (841) 517-3208",
    "address": {
      "zipcode": 15895,
      "street": "10 Cypress Court",
      "city": "Lavalette",
      "state": "Illinois"
    },
    "registered": "Tuesday, March 11, 2014 11:08 AM"
  },
  {
    "_id": "5da8c0816d558c3f165507b8",
    "cuisine": "Vegan",
    "name": "Zilla Tellifly",
    "phone": "+1 (883) 539-3887",
    "address": {
      "zipcode": 57930,
      "street": "53 Nevins Street",
      "city": "Floriston",
      "state": "Oklahoma"
    },
    "registered": "Friday, July 4, 2014 3:10 AM"
  },
  {
    "_id": "5da8c081586231f6fb158e18",
    "cuisine": "Vegan",
    "name": "Senmei Qimonk",
    "phone": "+1 (849) 529-3906",
    "address": {
      "zipcode": 60908,
      "street": "18 Ash Street",
      "city": "Blue",
      "state": "Pennsylvania"
    },
    "registered": "Thursday, September 1, 2016 6:00 PM"
  },
  {
    "_id": "5da8c081f83c2427c83ea093",
    "cuisine": "Chinese",
    "name": "Singavera Biotica",
    "phone": "+1 (972) 488-2705",
    "address": {
      "zipcode": 54403,
      "street": "59 Poplar Avenue",
      "city": "Sutton",
      "state": "Puerto Rico"
    },
    "registered": "Monday, August 4, 2014 1:25 PM"
  },
  {
    "_id": "5da8c081811af6e0306121e7",
    "cuisine": "Japanese",
    "name": "Eyewax Candecor",
    "phone": "+1 (861) 593-3617",
    "address": {
      "zipcode": 32607,
      "street": "8 Kosciusko Street",
      "city": "Inkerman",
      "state": "New Jersey"
    },
    "registered": "Saturday, June 6, 2015 7:07 AM"
  },
  {
    "_id": "5da8c081b2aeaab903e44b4a",
    "cuisine": "French",
    "name": "Acium Slax",
    "phone": "+1 (938) 518-3289",
    "address": {
      "zipcode": 51774,
      "street": "58 Congress Street",
      "city": "Thornport",
      "state": "Virginia"
    },
    "registered": "Friday, March 18, 2016 8:41 PM"
  },
  {
    "_id": "5da8c081ab0a9b773bf517c6",
    "cuisine": "Dutch",
    "name": "Temorak Songbird",
    "phone": "+1 (846) 528-3472",
    "address": {
      "zipcode": 26935,
      "street": "35 Kermit Place",
      "city": "Leming",
      "state": "Nebraska"
    },
    "registered": "Tuesday, April 14, 2015 4:07 PM"
  },
  {
    "_id": "5da8c0816e6794073819f9f3",
    "cuisine": "French",
    "name": "Verton Comveyer",
    "phone": "+1 (946) 558-2797",
    "address": {
      "zipcode": 66162,
      "street": "65 Cobek Court",
      "city": "Cowiche",
      "state": "Delaware"
    },
    "registered": "Tuesday, January 14, 2014 8:43 PM"
  },
  {
    "_id": "5da8c08154ea5c808969d338",
    "cuisine": "Indian",
    "name": "Supportal Zolarity",
    "phone": "+1 (858) 460-3410",
    "address": {
      "zipcode": 78329,
      "street": "28 Moore Street",
      "city": "Dahlen",
      "state": "Washington"
    },
    "registered": "Monday, April 14, 2014 12:58 PM"
  },
  {
    "_id": "5da8c081da9404eb4b224ba3",
    "cuisine": "Italian",
    "name": "Joviold Animalia",
    "phone": "+1 (889) 405-3025",
    "address": {
      "zipcode": 82096,
      "street": "50 Bayview Place",
      "city": "Cazadero",
      "state": "Mississippi"
    },
    "registered": "Saturday, October 6, 2018 3:43 AM"
  },
  {
    "_id": "5da8c08185b8a47ba79bdc6a",
    "cuisine": "Halal",
    "name": "Applideck Elpro",
    "phone": "+1 (922) 508-2669",
    "address": {
      "zipcode": 16209,
      "street": "19 Nostrand Avenue",
      "city": "Heil",
      "state": "Maine"
    },
    "registered": "Friday, October 3, 2014 2:48 AM"
  },
  {
    "_id": "5da8c081af20ebabe75e4339",
    "cuisine": "Vegan",
    "name": "Cogentry Edecine",
    "phone": "+1 (975) 598-3788",
    "address": {
      "zipcode": 21378,
      "street": "46 Lefferts Avenue",
      "city": "Grahamtown",
      "state": "New York"
    },
    "registered": "Friday, March 2, 2018 12:37 AM"
  },
  {
    "_id": "5da8c08118289cc9a9afb82b",
    "cuisine": "Vegan",
    "name": "Earthplex Repetwire",
    "phone": "+1 (883) 527-3166",
    "address": {
      "zipcode": 34978,
      "street": "36 Whitwell Place",
      "city": "Lithium",
      "state": "American Samoa"
    },
    "registered": "Friday, February 9, 2018 2:34 PM"
  },
  {
    "_id": "5da8c081469d381d8d967c2c",
    "cuisine": "Japanese",
    "name": "Fangold Enormo",
    "phone": "+1 (978) 563-2342",
    "address": {
      "zipcode": 47609,
      "street": "57 Banner Avenue",
      "city": "Zeba",
      "state": "South Carolina"
    },
    "registered": "Monday, October 24, 2016 11:28 PM"
  },
  {
    "_id": "5da8c0818986692fbae98ef8",
    "cuisine": "Italian",
    "name": "Macronaut Kneedles",
    "phone": "+1 (916) 479-2251",
    "address": {
      "zipcode": 44629,
      "street": "48 Hubbard Place",
      "city": "Bluetown",
      "state": "Tennessee"
    },
    "registered": "Thursday, June 19, 2014 10:39 PM"
  },
  {
    "_id": "5da8c08150fcd15e742f23c1",
    "cuisine": "Vegan",
    "name": "Emergent Comtour",
    "phone": "+1 (932) 485-3538",
    "address": {
      "zipcode": 25584,
      "street": "21 Kenmore Terrace",
      "city": "Hondah",
      "state": "Hawaii"
    },
    "registered": "Thursday, January 30, 2014 11:12 PM"
  },
  {
    "_id": "5da8c08169356c99aadb2859",
    "cuisine": "Lebanese",
    "name": "Isosure Isologica",
    "phone": "+1 (988) 489-2904",
    "address": {
      "zipcode": 16787,
      "street": "37 Adler Place",
      "city": "Morgandale",
      "state": "Minnesota"
    },
    "registered": "Tuesday, February 19, 2019 12:46 AM"
  },
  {
    "_id": "5da8c081996f5d554b60f360",
    "cuisine": "French",
    "name": "Sensate Xplor",
    "phone": "+1 (901) 470-2241",
    "address": {
      "zipcode": 26885,
      "street": "38 Locust Avenue",
      "city": "Bridgetown",
      "state": "Missouri"
    },
    "registered": "Thursday, March 26, 2015 6:42 AM"
  },
  {
    "_id": "5da8c0811f6531c27e65f41e",
    "cuisine": "Lebanese",
    "name": "Exostream Twiist",
    "phone": "+1 (805) 425-2091",
    "address": {
      "zipcode": 52931,
      "street": "62 Haring Street",
      "city": "Centerville",
      "state": "New Hampshire"
    },
    "registered": "Saturday, December 20, 2014 6:57 PM"
  },
  {
    "_id": "5da8c081a7238e5c3598e1e0",
    "cuisine": "Lebanese",
    "name": "Buzzworks Medmex",
    "phone": "+1 (857) 501-3705",
    "address": {
      "zipcode": 39603,
      "street": "27 Classon Avenue",
      "city": "Sandston",
      "state": "Rhode Island"
    },
    "registered": "Friday, July 25, 2014 1:19 PM"
  },
  {
    "_id": "5da8c081126de8ff14a65226",
    "cuisine": "Indian",
    "name": "Comtrail Snacktion",
    "phone": "+1 (972) 592-3714",
    "address": {
      "zipcode": 15208,
      "street": "44 Glenwood Road",
      "city": "Thomasville",
      "state": "North Carolina"
    },
    "registered": "Thursday, October 22, 2015 9:00 PM"
  },
  {
    "_id": "5da8c08198d469a2bf210d5e",
    "cuisine": "Indian",
    "name": "Overfork Viagrand",
    "phone": "+1 (907) 488-2944",
    "address": {
      "zipcode": 76639,
      "street": "16 Dahill Road",
      "city": "Smock",
      "state": "Palau"
    },
    "registered": "Wednesday, November 4, 2015 9:30 AM"
  },
  {
    "_id": "5da8c08117b7a48b90958a79",
    "cuisine": "Chinese",
    "name": "Arctiq Izzby",
    "phone": "+1 (828) 401-2832",
    "address": {
      "zipcode": 13492,
      "street": "41 Bulwer Place",
      "city": "Fairlee",
      "state": "Arizona"
    },
    "registered": "Sunday, September 1, 2019 6:00 PM"
  },
  {
    "_id": "5da8c081f07a1495d5dd6d3e",
    "cuisine": "Indian",
    "name": "Acruex Quailcom",
    "phone": "+1 (833) 465-2772",
    "address": {
      "zipcode": 83231,
      "street": "13 Rapelye Street",
      "city": "Dunbar",
      "state": "Georgia"
    },
    "registered": "Monday, June 16, 2014 5:39 PM"
  },
  {
    "_id": "5da8c081434ee42b4bf4b8ff",
    "cuisine": "Dutch",
    "name": "Eschoir Pharmex",
    "phone": "+1 (828) 537-3553",
    "address": {
      "zipcode": 24479,
      "street": "20 Henderson Walk",
      "city": "Advance",
      "state": "New Mexico"
    },
    "registered": "Thursday, November 29, 2018 8:09 AM"
  },
  {
    "_id": "5da8c081b81a4cc760e08106",
    "cuisine": "Japanese",
    "name": "Deminimum Zolarex",
    "phone": "+1 (801) 487-3036",
    "address": {
      "zipcode": 21776,
      "street": "59 Logan Street",
      "city": "Brantleyville",
      "state": "Florida"
    },
    "registered": "Thursday, July 3, 2014 6:28 AM"
  },
  {
    "_id": "5da8c08159b6eb96586a3bd7",
    "cuisine": "Indian",
    "name": "Quilk Ebidco",
    "phone": "+1 (992) 424-3780",
    "address": {
      "zipcode": 59458,
      "street": "48 Macdougal Street",
      "city": "Oretta",
      "state": "Utah"
    },
    "registered": "Tuesday, March 31, 2015 8:54 PM"
  },
  {
    "_id": "5da8c081e2a14e641ad53e60",
    "cuisine": "Italian",
    "name": "Scentric Jimbies",
    "phone": "+1 (894) 563-2787",
    "address": {
      "zipcode": 37558,
      "street": "33 Alabama Avenue",
      "city": "Utting",
      "state": "Kentucky"
    },
    "registered": "Thursday, December 27, 2018 3:35 AM"
  },
  {
    "_id": "5da8c081c37ab86eaebcad36",
    "cuisine": "Kosher",
    "name": "Elita Venoflex",
    "phone": "+1 (982) 564-2608",
    "address": {
      "zipcode": 78886,
      "street": "45 Miami Court",
      "city": "Muse",
      "state": "Connecticut"
    },
    "registered": "Saturday, October 20, 2018 9:53 PM"
  },
  {
    "_id": "5da8c0813f5b6bd86422f08f",
    "cuisine": "Vegan",
    "name": "Bedlam Tetak",
    "phone": "+1 (878) 439-2817",
    "address": {
      "zipcode": 26785,
      "street": "35 Grand Avenue",
      "city": "Clarence",
      "state": "Maryland"
    },
    "registered": "Thursday, July 6, 2017 3:06 AM"
  },
  {
    "_id": "5da8c081eeb4755ba25a17f1",
    "cuisine": "Indian",
    "name": "Netagy Quadeebo",
    "phone": "+1 (830) 459-2821",
    "address": {
      "zipcode": 38284,
      "street": "30 Brigham Street",
      "city": "Columbus",
      "state": "Montana"
    },
    "registered": "Saturday, June 9, 2018 11:39 AM"
  },
  {
    "_id": "5da8c081a2ad34175b0307f2",
    "cuisine": "Dutch",
    "name": "Minga Accel",
    "phone": "+1 (939) 544-2050",
    "address": {
      "zipcode": 15907,
      "street": "62 Terrace Place",
      "city": "Loma",
      "state": "Louisiana"
    },
    "registered": "Thursday, August 21, 2014 11:31 AM"
  },
  {
    "_id": "5da8c0829ad2153d535a8839",
    "cuisine": "Halal",
    "name": "Straloy Radiantix",
    "phone": "+1 (996) 542-2244",
    "address": {
      "zipcode": 74887,
      "street": "75 Nichols Avenue",
      "city": "Freelandville",
      "state": "Iowa"
    },
    "registered": "Thursday, March 22, 2018 10:14 PM"
  },
  {
    "_id": "5da8c0826ad3eacb69558e8b",
    "cuisine": "French",
    "name": "Assistix Lunchpod",
    "phone": "+1 (937) 426-2180",
    "address": {
      "zipcode": 76233,
      "street": "38 Linden Street",
      "city": "Jackpot",
      "state": "West Virginia"
    },
    "registered": "Monday, January 6, 2014 12:17 AM"
  },
  {
    "_id": "5da8c082b9c4a65fa9946eb2",
    "cuisine": "Vegan",
    "name": "Icology Cuizine",
    "phone": "+1 (890) 455-3824",
    "address": {
      "zipcode": 80525,
      "street": "46 Onderdonk Avenue",
      "city": "Concho",
      "state": "Indiana"
    },
    "registered": "Friday, April 11, 2014 2:01 AM"
  },
  {
    "_id": "5da8c082f6b358ce70ddb6b3",
    "cuisine": "Indian",
    "name": "Ziore Comtours",
    "phone": "+1 (874) 436-2907",
    "address": {
      "zipcode": 75091,
      "street": "8 Ashland Place",
      "city": "Bainbridge",
      "state": "Idaho"
    },
    "registered": "Wednesday, February 26, 2014 4:42 AM"
  },
  {
    "_id": "5da8c082f795eccc83be2a5e",
    "cuisine": "Dutch",
    "name": "Cyclonica Utarian",
    "phone": "+1 (861) 559-3947",
    "address": {
      "zipcode": 42606,
      "street": "50 Centre Street",
      "city": "Lumberton",
      "state": "District Of Columbia"
    },
    "registered": "Thursday, September 4, 2014 2:09 AM"
  },
  {
    "_id": "5da8c08202cc4482ee19238d",
    "cuisine": "Chinese",
    "name": "Eventix Uplinx",
    "phone": "+1 (979) 578-2419",
    "address": {
      "zipcode": 44444,
      "street": "61 Coleman Street",
      "city": "Duryea",
      "state": "California"
    },
    "registered": "Monday, November 27, 2017 11:40 PM"
  },
  {
    "_id": "5da8c082e97dda17b1007849",
    "cuisine": "Japanese",
    "name": "Comstruct Comveyor",
    "phone": "+1 (981) 485-3709",
    "address": {
      "zipcode": 84578,
      "street": "69 Kenmore Court",
      "city": "Allentown",
      "state": "Colorado"
    },
    "registered": "Thursday, August 13, 2015 5:31 AM"
  },
  {
    "_id": "5da8c0826d952593ddd790ae",
    "cuisine": "Lebanese",
    "name": "Slofast Geekus",
    "phone": "+1 (840) 470-3567",
    "address": {
      "zipcode": 11958,
      "street": "68 Lancaster Avenue",
      "city": "Sylvanite",
      "state": "Arkansas"
    },
    "registered": "Saturday, July 21, 2018 5:12 PM"
  },
  {
    "_id": "5da8c082d8f4c4c23cb6f740",
    "cuisine": "French",
    "name": "Geostele Prosely",
    "phone": "+1 (865) 575-3827",
    "address": {
      "zipcode": 55882,
      "street": "48 Court Square",
      "city": "Lindisfarne",
      "state": "Guam"
    },
    "registered": "Monday, January 16, 2017 10:07 PM"
  },
  {
    "_id": "5da8c0823adf7767ed3263ca",
    "cuisine": "Vegan",
    "name": "Stucco Enervate",
    "phone": "+1 (988) 557-2160",
    "address": {
      "zipcode": 70527,
      "street": "51 Cooper Street",
      "city": "Chilton",
      "state": "Northern Mariana Islands"
    },
    "registered": "Tuesday, April 12, 2016 1:05 AM"
  },
  {
    "_id": "5da8c082efc874755b7ae2d0",
    "cuisine": "Dutch",
    "name": "Codact Surelogic",
    "phone": "+1 (840) 403-3904",
    "address": {
      "zipcode": 54330,
      "street": "73 Canda Avenue",
      "city": "Gloucester",
      "state": "Nevada"
    },
    "registered": "Saturday, October 27, 2018 6:02 PM"
  },
  {
    "_id": "5da8c08249edb31befc4bbd3",
    "cuisine": "Halal",
    "name": "Frenex Undertap",
    "phone": "+1 (888) 542-2643",
    "address": {
      "zipcode": 56667,
      "street": "37 Whitty Lane",
      "city": "Orick",
      "state": "Kansas"
    },
    "registered": "Thursday, March 5, 2015 9:18 AM"
  },
  {
    "_id": "5da8c0822dc019bd32ad2741",
    "cuisine": "Halal",
    "name": "Kengen Insuron",
    "phone": "+1 (845) 495-3438",
    "address": {
      "zipcode": 58706,
      "street": "8 Lawn Court",
      "city": "Fidelis",
      "state": "Wyoming"
    },
    "registered": "Wednesday, May 1, 2019 7:35 AM"
  },
  {
    "_id": "5da8c082121f7a07b9a2b22d",
    "cuisine": "Indian",
    "name": "Balooba Coash",
    "phone": "+1 (942) 583-3275",
    "address": {
      "zipcode": 42057,
      "street": "48 Plymouth Street",
      "city": "Fulford",
      "state": "South Dakota"
    },
    "registered": "Sunday, February 23, 2014 7:54 PM"
  },
  {
    "_id": "5da8c082a79c3b686309d8eb",
    "cuisine": "Italian",
    "name": "Utara Overplex",
    "phone": "+1 (830) 408-2701",
    "address": {
      "zipcode": 34082,
      "street": "76 Prescott Place",
      "city": "Springdale",
      "state": "Federated States Of Micronesia"
    },
    "registered": "Tuesday, November 10, 2015 8:07 AM"
  },
  {
    "_id": "5da8c082e5d144f2bfec659b",
    "cuisine": "Halal",
    "name": "Quinex Iplax",
    "phone": "+1 (881) 576-2334",
    "address": {
      "zipcode": 65832,
      "street": "57 Rockwell Place",
      "city": "Williston",
      "state": "Oregon"
    },
    "registered": "Friday, September 19, 2014 9:10 AM"
  },
  {
    "_id": "5da8c082f46f71bdc680915a",
    "cuisine": "Vegan",
    "name": "Cosmosis Zoid",
    "phone": "+1 (893) 533-2503",
    "address": {
      "zipcode": 29645,
      "street": "16 Kent Avenue",
      "city": "Aguila",
      "state": "Alabama"
    },
    "registered": "Sunday, February 28, 2016 5:17 PM"
  },
  {
    "_id": "5da8c0a6550ef2832db77e5f",
    "cuisine": "Halal",
    "name": "Geeketron Netropic",
    "phone": "+1 (949) 569-2976",
    "address": {
      "zipcode": 79499,
      "street": "52 Crescent Street",
      "city": "Diaperville",
      "state": "Maryland"
    },
    "registered": "Sunday, July 13, 2014 8:20 PM"
  },
  {
    "_id": "5da8c0a65a50e92a7fd7fa1b",
    "cuisine": "Vegan",
    "name": "Assistix Zeam",
    "phone": "+1 (963) 408-3694",
    "address": {
      "zipcode": 48025,
      "street": "39 Kingston Avenue",
      "city": "Roland",
      "state": "Palau"
    },
    "registered": "Saturday, December 6, 2014 9:59 AM"
  },
  {
    "_id": "5da8c0a638639fb7d43cb213",
    "cuisine": "Italian",
    "name": "Stelaecor Valpreal",
    "phone": "+1 (844) 522-2874",
    "address": {
      "zipcode": 32122,
      "street": "11 Empire Boulevard",
      "city": "Stockwell",
      "state": "Ohio"
    },
    "registered": "Friday, October 23, 2015 12:23 AM"
  },
  {
    "_id": "5da8c0a6b5d814d0f7f4351a",
    "cuisine": "Vegan",
    "name": "Geofarm Exostream",
    "phone": "+1 (963) 426-2370",
    "address": {
      "zipcode": 22240,
      "street": "59 Stryker Street",
      "city": "Blue",
      "state": "Arizona"
    },
    "registered": "Monday, May 1, 2017 5:10 AM"
  },
  {
    "_id": "5da8c0a62e742dd8edfa4371",
    "cuisine": "Italian",
    "name": "Plexia Snorus",
    "phone": "+1 (876) 513-2285",
    "address": {
      "zipcode": 66716,
      "street": "39 Willmohr Street",
      "city": "Berlin",
      "state": "Tennessee"
    },
    "registered": "Wednesday, September 25, 2019 3:30 PM"
  },
  {
    "_id": "5da8c0a69eaf39f193cf5caf",
    "cuisine": "Chinese",
    "name": "Kozgene Steeltab",
    "phone": "+1 (990) 521-3749",
    "address": {
      "zipcode": 43950,
      "street": "73 Quincy Street",
      "city": "Alfarata",
      "state": "Missouri"
    },
    "registered": "Tuesday, January 13, 2015 8:59 PM"
  },
  {
    "_id": "5da8c0a6dd7773048acd15b7",
    "cuisine": "Italian",
    "name": "Centregy Exovent",
    "phone": "+1 (965) 598-2523",
    "address": {
      "zipcode": 17111,
      "street": "62 Barbey Street",
      "city": "Crisman",
      "state": "South Carolina"
    },
    "registered": "Wednesday, June 1, 2016 2:21 PM"
  },
  {
    "_id": "5da8c0a636a131b8befca51a",
    "cuisine": "Japanese",
    "name": "Portalis Comtour",
    "phone": "+1 (831) 496-2562",
    "address": {
      "zipcode": 44322,
      "street": "20 Monument Walk",
      "city": "Fairforest",
      "state": "Connecticut"
    },
    "registered": "Thursday, July 11, 2019 9:22 PM"
  },
  {
    "_id": "5da8c0a6cbef37dee372c4ae",
    "cuisine": "Halal",
    "name": "Ersum Harmoney",
    "phone": "+1 (937) 492-2047",
    "address": {
      "zipcode": 75328,
      "street": "52 John Street",
      "city": "Norris",
      "state": "Colorado"
    },
    "registered": "Tuesday, January 31, 2017 1:30 PM"
  },
  {
    "_id": "5da8c0a6e127ff0c24c26ae4",
    "cuisine": "Halal",
    "name": "Codact Isoswitch",
    "phone": "+1 (973) 553-3859",
    "address": {
      "zipcode": 66537,
      "street": "56 Vanderbilt Avenue",
      "city": "Wilsonia",
      "state": "Montana"
    },
    "registered": "Tuesday, June 28, 2016 11:44 AM"
  },
  {
    "_id": "5da8c0a6616d2b83314755fa",
    "cuisine": "Indian",
    "name": "Xoggle Keengen",
    "phone": "+1 (924) 561-2772",
    "address": {
      "zipcode": 63229,
      "street": "62 Story Street",
      "city": "Delshire",
      "state": "Oklahoma"
    },
    "registered": "Sunday, September 15, 2019 9:20 PM"
  },
  {
    "_id": "5da8c0a61e0a0e0b2b57afe9",
    "cuisine": "Indian",
    "name": "Ceprene Overplex",
    "phone": "+1 (882) 469-2655",
    "address": {
      "zipcode": 11318,
      "street": "76 Johnson Street",
      "city": "Dragoon",
      "state": "Michigan"
    },
    "registered": "Friday, August 30, 2019 3:16 PM"
  },
  {
    "_id": "5da8c0a61b86fbe3b67926da",
    "cuisine": "Vegan",
    "name": "Rubadub Lovepad",
    "phone": "+1 (889) 412-2211",
    "address": {
      "zipcode": 85906,
      "street": "73 Monroe Street",
      "city": "Rivers",
      "state": "North Carolina"
    },
    "registered": "Tuesday, September 6, 2016 12:51 AM"
  },
  {
    "_id": "5da8c0a6fbf67ad032681a63",
    "cuisine": "Dutch",
    "name": "Immunics Exoplode",
    "phone": "+1 (994) 406-3590",
    "address": {
      "zipcode": 68787,
      "street": "39 Tampa Court",
      "city": "Strong",
      "state": "West Virginia"
    },
    "registered": "Friday, January 8, 2016 5:02 PM"
  },
  {
    "_id": "5da8c0a6f95a31648ac333e0",
    "cuisine": "Chinese",
    "name": "Turnling Letpro",
    "phone": "+1 (860) 427-3367",
    "address": {
      "zipcode": 63618,
      "street": "12 Anchorage Place",
      "city": "Richville",
      "state": "Indiana"
    },
    "registered": "Saturday, August 16, 2014 2:00 PM"
  },
  {
    "_id": "5da8c0a60d7fe65eab92ae8c",
    "cuisine": "Italian",
    "name": "Cablam Velos",
    "phone": "+1 (850) 546-3678",
    "address": {
      "zipcode": 85935,
      "street": "71 Friel Place",
      "city": "Gadsden",
      "state": "Wyoming"
    },
    "registered": "Sunday, September 17, 2017 4:55 PM"
  },
  {
    "_id": "5da8c0a6a527658e3dc46a02",
    "cuisine": "Indian",
    "name": "Synkgen Digique",
    "phone": "+1 (873) 564-2023",
    "address": {
      "zipcode": 83365,
      "street": "22 Kenmore Court",
      "city": "Irwin",
      "state": "Georgia"
    },
    "registered": "Tuesday, November 17, 2015 12:49 AM"
  },
  {
    "_id": "5da8c0a640dff4413c51f179",
    "cuisine": "Indian",
    "name": "Hinway Geekmosis",
    "phone": "+1 (890) 402-3551",
    "address": {
      "zipcode": 79123,
      "street": "73 Wilson Avenue",
      "city": "Sylvanite",
      "state": "Federated States Of Micronesia"
    },
    "registered": "Sunday, December 21, 2014 2:38 AM"
  },
  {
    "_id": "5da8c0a6d5c6f640de39c407",
    "cuisine": "Indian",
    "name": "Undertap Kiosk",
    "phone": "+1 (938) 586-2307",
    "address": {
      "zipcode": 19839,
      "street": "67 Dahill Road",
      "city": "Morningside",
      "state": "Hawaii"
    },
    "registered": "Tuesday, April 19, 2016 10:07 PM"
  },
  {
    "_id": "5da8c0a660f2b6fec7450363",
    "cuisine": "Lebanese",
    "name": "Snowpoke Nixelt",
    "phone": "+1 (824) 567-2765",
    "address": {
      "zipcode": 37512,
      "street": "17 Conover Street",
      "city": "Moscow",
      "state": "Virginia"
    },
    "registered": "Saturday, June 15, 2019 10:21 PM"
  },
  {
    "_id": "5da8c0a67460d3b63307072e",
    "cuisine": "French",
    "name": "Acruex Frosnex",
    "phone": "+1 (868) 566-3685",
    "address": {
      "zipcode": 83670,
      "street": "66 Burnett Street",
      "city": "Trucksville",
      "state": "Massachusetts"
    },
    "registered": "Sunday, September 20, 2015 2:57 PM"
  },
  {
    "_id": "5da8c0a65d440829a79e16c6",
    "cuisine": "Kosher",
    "name": "Zogak Recrisys",
    "phone": "+1 (885) 472-3778",
    "address": {
      "zipcode": 36717,
      "street": "17 Bokee Court",
      "city": "Succasunna",
      "state": "Texas"
    },
    "registered": "Sunday, April 28, 2019 11:38 PM"
  },
  {
    "_id": "5da8c0a64c12e1f18112d7e3",
    "cuisine": "Chinese",
    "name": "Acium Rodeocean",
    "phone": "+1 (911) 540-2514",
    "address": {
      "zipcode": 30862,
      "street": "11 Turnbull Avenue",
      "city": "Washington",
      "state": "Puerto Rico"
    },
    "registered": "Saturday, August 8, 2015 4:14 AM"
  },
  {
    "_id": "5da8c0a67b16c8ff8c43f313",
    "cuisine": "Italian",
    "name": "Ezent Datagen",
    "phone": "+1 (989) 422-3621",
    "address": {
      "zipcode": 60956,
      "street": "75 Hinckley Place",
      "city": "Ogema",
      "state": "Illinois"
    },
    "registered": "Wednesday, January 24, 2018 4:05 AM"
  },
  {
    "_id": "5da8c0a60739805d12c19b98",
    "cuisine": "Italian",
    "name": "Quiltigen Liquidoc",
    "phone": "+1 (990) 555-3461",
    "address": {
      "zipcode": 12998,
      "street": "58 Hendrickson Place",
      "city": "Alleghenyville",
      "state": "Northern Mariana Islands"
    },
    "registered": "Friday, August 21, 2015 9:48 PM"
  },
  {
    "_id": "5da8c0a65bfa6f150e9f8306",
    "cuisine": "Halal",
    "name": "Dognost Vendblend",
    "phone": "+1 (976) 475-2988",
    "address": {
      "zipcode": 22588,
      "street": "43 Greenwood Avenue",
      "city": "Lutsen",
      "state": "Iowa"
    },
    "registered": "Monday, April 27, 2015 2:31 PM"
  },
  {
    "_id": "5da8c0a60ccb14b2a073a09a",
    "cuisine": "Lebanese",
    "name": "Automon Viocular",
    "phone": "+1 (924) 539-2651",
    "address": {
      "zipcode": 57446,
      "street": "40 Royce Place",
      "city": "Westwood",
      "state": "New York"
    },
    "registered": "Monday, January 28, 2019 8:28 PM"
  },
  {
    "_id": "5da8c0a6a1a4d7bc8a04aa1b",
    "cuisine": "Italian",
    "name": "Cognicode Glukgluk",
    "phone": "+1 (992) 402-3629",
    "address": {
      "zipcode": 80888,
      "street": "36 Main Street",
      "city": "Eagletown",
      "state": "Louisiana"
    },
    "registered": "Thursday, May 2, 2019 1:55 AM"
  },
  {
    "_id": "5da8c0a6065262708134fcb3",
    "cuisine": "French",
    "name": "Obliq Helixo",
    "phone": "+1 (809) 455-3706",
    "address": {
      "zipcode": 64070,
      "street": "57 Otsego Street",
      "city": "Malo",
      "state": "Nevada"
    },
    "registered": "Friday, June 26, 2015 8:37 PM"
  },
  {
    "_id": "5da8c0a65387c4035ef23f10",
    "cuisine": "Vegan",
    "name": "Zentime Enervate",
    "phone": "+1 (835) 423-2093",
    "address": {
      "zipcode": 41730,
      "street": "10 Catherine Street",
      "city": "Allamuchy",
      "state": "Kansas"
    },
    "registered": "Thursday, August 16, 2018 11:47 PM"
  },
  {
    "_id": "5da8c0a65c5d256b8f969bc2",
    "cuisine": "Lebanese",
    "name": "Emoltra Exposa",
    "phone": "+1 (975) 405-2171",
    "address": {
      "zipcode": 53916,
      "street": "11 Brigham Street",
      "city": "Loveland",
      "state": "Wisconsin"
    },
    "registered": "Tuesday, April 14, 2015 1:08 AM"
  },
  {
    "_id": "5da8c0a6434f0f70f611ab66",
    "cuisine": "Indian",
    "name": "Lingoage Applideck",
    "phone": "+1 (812) 495-3543",
    "address": {
      "zipcode": 17661,
      "street": "16 Bowne Street",
      "city": "Kieler",
      "state": "Nebraska"
    },
    "registered": "Sunday, December 20, 2015 5:36 PM"
  },
  {
    "_id": "5da8c0a6fd9600c829b5d758",
    "cuisine": "Vegan",
    "name": "Flumbo Ziggles",
    "phone": "+1 (899) 451-3551",
    "address": {
      "zipcode": 69898,
      "street": "20 Clymer Street",
      "city": "Ypsilanti",
      "state": "California"
    },
    "registered": "Monday, June 10, 2019 12:40 AM"
  },
  {
    "_id": "5da8c0a6c2175aa2d6054486",
    "cuisine": "Lebanese",
    "name": "Centuria Kidgrease",
    "phone": "+1 (986) 539-3809",
    "address": {
      "zipcode": 55412,
      "street": "75 Court Street",
      "city": "Boyd",
      "state": "North Dakota"
    },
    "registered": "Thursday, January 12, 2017 2:36 PM"
  },
  {
    "_id": "5da8c0a62d2a4183ed33458d",
    "cuisine": "Indian",
    "name": "Sportan Geekology",
    "phone": "+1 (889) 458-2881",
    "address": {
      "zipcode": 13713,
      "street": "47 Joval Court",
      "city": "Garfield",
      "state": "Utah"
    },
    "registered": "Wednesday, December 7, 2016 9:27 AM"
  },
  {
    "_id": "5da8c0a67356b7037faf5da0",
    "cuisine": "French",
    "name": "Terragen Quantasis",
    "phone": "+1 (819) 488-3667",
    "address": {
      "zipcode": 20226,
      "street": "17 Cass Place",
      "city": "Beaulieu",
      "state": "Arkansas"
    },
    "registered": "Sunday, February 10, 2019 12:59 AM"
  },
  {
    "_id": "5da8c0a6c352dbd7137e1165",
    "cuisine": "Halal",
    "name": "Aquazure Rotodyne",
    "phone": "+1 (882) 425-3933",
    "address": {
      "zipcode": 77824,
      "street": "9 Oriental Court",
      "city": "Tyhee",
      "state": "Oregon"
    },
    "registered": "Friday, December 5, 2014 10:58 AM"
  },
  {
    "_id": "5da8c0a6fd2f4ad1be9a7129",
    "cuisine": "French",
    "name": "Nebulean Toyletry",
    "phone": "+1 (896) 555-3618",
    "address": {
      "zipcode": 65018,
      "street": "17 Dewitt Avenue",
      "city": "Freelandville",
      "state": "Rhode Island"
    },
    "registered": "Thursday, September 17, 2015 1:26 AM"
  },
  {
    "_id": "5da8c0a65455e3e133494e09",
    "cuisine": "Italian",
    "name": "Pathways Kneedles",
    "phone": "+1 (864) 563-2028",
    "address": {
      "zipcode": 23002,
      "street": "16 Bassett Avenue",
      "city": "Chesterfield",
      "state": "New Mexico"
    },
    "registered": "Wednesday, September 13, 2017 1:56 AM"
  },
  {
    "_id": "5da8c0a609069d24c71cce9e",
    "cuisine": "Dutch",
    "name": "Zillatide Geekola",
    "phone": "+1 (843) 411-3652",
    "address": {
      "zipcode": 42455,
      "street": "37 National Drive",
      "city": "Marbury",
      "state": "Virgin Islands"
    },
    "registered": "Wednesday, May 1, 2019 5:47 AM"
  },
  {
    "_id": "5da8c0a6d6feff0fffe460b2",
    "cuisine": "Halal",
    "name": "Zaggle Dancerity",
    "phone": "+1 (953) 510-3943",
    "address": {
      "zipcode": 33547,
      "street": "49 Central Avenue",
      "city": "Waukeenah",
      "state": "Guam"
    },
    "registered": "Friday, July 18, 2014 10:39 PM"
  },
  {
    "_id": "5da8c0a65230cd2c94065bb2",
    "cuisine": "Lebanese",
    "name": "Pyramia Orbixtar",
    "phone": "+1 (837) 536-2482",
    "address": {
      "zipcode": 46372,
      "street": "54 Java Street",
      "city": "Brooktrails",
      "state": "Vermont"
    },
    "registered": "Monday, January 23, 2017 3:50 AM"
  },
  {
    "_id": "5da8c0a6c60a8810d358368f",
    "cuisine": "Dutch",
    "name": "Uxmox Gronk",
    "phone": "+1 (934) 439-3573",
    "address": {
      "zipcode": 22946,
      "street": "66 Elm Place",
      "city": "Como",
      "state": "Florida"
    },
    "registered": "Saturday, March 9, 2019 12:19 AM"
  },
  {
    "_id": "5da8c0a6146ab19b63a304d8",
    "cuisine": "Chinese",
    "name": "Bristo Aquacine",
    "phone": "+1 (996) 568-3491",
    "address": {
      "zipcode": 48221,
      "street": "50 Balfour Place",
      "city": "Mayfair",
      "state": "Kentucky"
    },
    "registered": "Friday, May 26, 2017 1:51 AM"
  },
  {
    "_id": "5da8c0a61ef95273b8044c1e",
    "cuisine": "Italian",
    "name": "Deminimum Amtap",
    "phone": "+1 (933) 562-3025",
    "address": {
      "zipcode": 54169,
      "street": "73 Osborn Street",
      "city": "Hamilton",
      "state": "American Samoa"
    },
    "registered": "Friday, January 24, 2014 9:21 PM"
  },
  {
    "_id": "5da8c0a6eaa139e01b3fc599",
    "cuisine": "Indian",
    "name": "Balooba Comvoy",
    "phone": "+1 (836) 423-3798",
    "address": {
      "zipcode": 79363,
      "street": "26 Sumner Place",
      "city": "Cresaptown",
      "state": "Alabama"
    },
    "registered": "Tuesday, May 2, 2017 8:57 AM"
  },
  {
    "_id": "5da8c0a630a660539fc3ee8b",
    "cuisine": "Italian",
    "name": "Corepan Zoid",
    "phone": "+1 (894) 551-2423",
    "address": {
      "zipcode": 19255,
      "street": "31 Hausman Street",
      "city": "Kilbourne",
      "state": "Washington"
    },
    "registered": "Sunday, January 12, 2014 12:56 AM"
  },
  {
    "_id": "5da8c0a6d040d6f9dcf4776f",
    "cuisine": "Halal",
    "name": "Isostream Ohmnet",
    "phone": "+1 (821) 404-3310",
    "address": {
      "zipcode": 81831,
      "street": "71 Stoddard Place",
      "city": "Wollochet",
      "state": "Delaware"
    },
    "registered": "Thursday, May 29, 2014 4:17 AM"
  },
  {
    "_id": "5da8c0a6f9bef4e4de81bf7b",
    "cuisine": "Japanese",
    "name": "Magmina Lunchpod",
    "phone": "+1 (850) 538-2834",
    "address": {
      "zipcode": 41888,
      "street": "60 Bainbridge Street",
      "city": "Sharon",
      "state": "District Of Columbia"
    },
    "registered": "Sunday, June 21, 2015 1:32 PM"
  },
  {
    "_id": "5da8c0a6d8c48873e8714b1a",
    "cuisine": "Italian",
    "name": "Digigen Ecstasia",
    "phone": "+1 (981) 411-3363",
    "address": {
      "zipcode": 41873,
      "street": "41 Conklin Avenue",
      "city": "Clara",
      "state": "Pennsylvania"
    },
    "registered": "Thursday, August 20, 2015 8:28 AM"
  },
  {
    "_id": "5da8c0a6c838584dbd717e23",
    "cuisine": "Dutch",
    "name": "Talkalot Comvey",
    "phone": "+1 (947) 512-2356",
    "address": {
      "zipcode": 46916,
      "street": "12 Drew Street",
      "city": "Kylertown",
      "state": "Minnesota"
    },
    "registered": "Thursday, September 6, 2018 6:12 AM"
  },
  {
    "_id": "5da8c0a6316065aedceb2be4",
    "cuisine": "French",
    "name": "Golistic Isonus",
    "phone": "+1 (803) 586-3640",
    "address": {
      "zipcode": 29019,
      "street": "26 Miami Court",
      "city": "Allensworth",
      "state": "Alaska"
    },
    "registered": "Thursday, June 22, 2017 3:37 AM"
  },
  {
    "_id": "5da8c0a68fa9632161c435d6",
    "cuisine": "Kosher",
    "name": "Webiotic Hairport",
    "phone": "+1 (973) 459-3688",
    "address": {
      "zipcode": 85742,
      "street": "32 Ryder Avenue",
      "city": "Farmers",
      "state": "New Jersey"
    },
    "registered": "Thursday, April 4, 2019 9:34 PM"
  },
  {
    "_id": "5da8c0a6c86f7c2685387467",
    "cuisine": "Indian",
    "name": "Injoy Futurize",
    "phone": "+1 (859) 534-3672",
    "address": {
      "zipcode": 33763,
      "street": "25 Orient Avenue",
      "city": "Dellview",
      "state": "South Dakota"
    },
    "registered": "Monday, October 12, 2015 11:48 AM"
  },
  {
    "_id": "5da8c0a6a90351f9777f8bff",
    "cuisine": "Italian",
    "name": "Quadeebo Enormo",
    "phone": "+1 (829) 409-2255",
    "address": {
      "zipcode": 62208,
      "street": "6 Juliana Place",
      "city": "Axis",
      "state": "New Hampshire"
    },
    "registered": "Monday, September 30, 2019 8:41 PM"
  },
  {
    "_id": "5da8c0a6154b172cd8a78894",
    "cuisine": "Japanese",
    "name": "Zedalis Slumberia",
    "phone": "+1 (991) 456-3092",
    "address": {
      "zipcode": 40457,
      "street": "49 Powers Street",
      "city": "Shawmut",
      "state": "Mississippi"
    },
    "registered": "Saturday, May 3, 2014 2:49 AM"
  },
  {
    "_id": "5da8c0a68341b141fec4c982",
    "cuisine": "Indian",
    "name": "Magnemo Kegular",
    "phone": "+1 (996) 418-2001",
    "address": {
      "zipcode": 61085,
      "street": "72 Schenck Avenue",
      "city": "Toftrees",
      "state": "Marshall Islands"
    },
    "registered": "Friday, July 20, 2018 11:45 PM"
  },
  {
    "_id": "5da8c0a645a8cb180c48a14f",
    "cuisine": "Indian",
    "name": "Talkola Buzzopia",
    "phone": "+1 (812) 589-3885",
    "address": {
      "zipcode": 74816,
      "street": "28 Stryker Court",
      "city": "Snyderville",
      "state": "Maine"
    },
    "registered": "Sunday, October 22, 2017 12:03 AM"
  },
  {
    "_id": "5da8c0a66c4e7e862ce4408c",
    "cuisine": "Japanese",
    "name": "Peticular Luxuria",
    "phone": "+1 (930) 595-2543",
    "address": {
      "zipcode": 72760,
      "street": "74 Loring Avenue",
      "city": "Chicopee",
      "state": "Maryland"
    },
    "registered": "Saturday, December 17, 2016 5:15 PM"
  },
  {
    "_id": "5da8c0a6ed9ba70c934622ae",
    "cuisine": "French",
    "name": "Recognia Boilcat",
    "phone": "+1 (829) 498-3138",
    "address": {
      "zipcode": 35787,
      "street": "43 Fay Court",
      "city": "Fulford",
      "state": "Palau"
    },
    "registered": "Friday, October 14, 2016 12:30 PM"
  },
  {
    "_id": "5da8c0a674941025c4bbeb3f",
    "cuisine": "Halal",
    "name": "Bluegrain Netur",
    "phone": "+1 (891) 565-3553",
    "address": {
      "zipcode": 15317,
      "street": "35 Martense Street",
      "city": "Tecolotito",
      "state": "Ohio"
    },
    "registered": "Friday, November 13, 2015 11:08 AM"
  },
  {
    "_id": "5da8c0a637d4caf525a70eb5",
    "cuisine": "Halal",
    "name": "Flexigen Trollery",
    "phone": "+1 (857) 513-3555",
    "address": {
      "zipcode": 80383,
      "street": "74 Hart Street",
      "city": "Lindcove",
      "state": "Arizona"
    },
    "registered": "Wednesday, September 12, 2018 6:15 PM"
  }
]